<?xml version='1.0' encoding='UTF-8'?>
<kml xmlns="http://www.opengis.net/kml/2.2">
  <Document>
    <name>Inventory</name>
    <Style id="station_0">
      <IconStyle>
        <color>ffe3cea6</color>
        <scale>1.5</scale>
        <Icon>
          <href>https://maps.google.com/mapfiles/kml/shapes/triangle.png</href>
        </Icon>
        <hotSpot x="0.5" y="0.5" xunits="fraction" yunits="fraction"/>
      </IconStyle>
      <LabelStyle>
        <color>ffe3cea6</color>
        <scale>1.0</scale>
      </LabelStyle>
    </Style>
    <Folder>
      <name>S1</name>
      <open>1</open>
      <description>Network S1 (Australian Seismometers in Schools (AuSIS))
	Station Count: 51/52 (Selected/Total)
	2011-01-01T00:00:00.000000Z - --
	Access: open
	Contains:
		Stations (51):
			S1.AUALB (St Joseph's College)
			S1.AUALC (St Philip's College)
			S1.AUANU (Australian National University)
			S1.AUAPY (Ernabella Anangu School)
			S1.AUAYR (Ayr State High School)
			S1.AUBRM (Broome Senior High School)
			S1.AUBRN (Burnie High School)
			S1.AUBSH (Beerwah State High School)
			S1.AUBUS (Georgiana Molloy Anglican School)
			S1.AUCAR (St Mary Star of the Sea)
			S1.AUCAS (Cummins Area School)
			S1.AUCSH (Cairns State High School)
			S1.AUDAR (Daramalan College)
			S1.AUDCS (Dubbo College Senior Campus)
			S1.AUDHS (Darwin High School)
			S1.AUGRF (Marian Catholic College)
			S1.AUHAR (St Anne's School)
			S1.AUHPC (Hawkesdale P12 School)
			S1.AUJCS (Jamestown Community School)
			S1.AUKAL (John Paul College)
			S1.AUKAR (St Luke's College)
			S1.AUKAT (Katherine High School)
			S1.AUKHS (Kincumber High School)
			S1.AUKSC (Keysborough Secondary College)
			S1.AUKUL (Kulin District High School)
			S1.AULHS (Lilydale High School)
			S1.AULRC (Lightning Ridge Central School)
			S1.AUMAG (Moama Anglican Grammar)
			S1.AUMAR (Marden Senior College)
			S1.AUMAZ (Mazenod Senior College)
			S1.AUMBR (Murray Bridge High School)
			S1.AUMHS (Melrose High School)
			S1.AUMOU (Moura State High School)
			S1.AUMTC (Mt Clear College/Earth Ed)
			S1.AUMTS (Mt Stromlo)
			S1.AUNHS (Nhulunbuy High School)
			S1.AUNRC (North Rockhampton State High School)
			S1.AUPHS (Peel High School)
			S1.AUPKL (Parklands High School)
			S1.AURMK (Renmark High School)
			S1.AUROX (Roxby Downs Area School)
			S1.AURSC (Rosebud Secondary College)
			S1.AUSIS (Australian National University)
			S1.AUSMG (Snowy Mountains Grammar School)
			S1.AUSSC (Sale College)
			S1.AUTAR (Taroona High School)
			S1.AUTKS (The King's School)
			S1.AUTOO (Toowoomba State High School)
			S1.AUUHS (Ulladulla High School)
			S1.AUWSH (Wavell State High School)
			S1.TEST (TESTING ONLY)
		Channels (0):
</description>
      <Style>
        <ListStyle>
          <listItemType>check</listItemType>
          <bgColor>00ffff</bgColor>
          <maxSnippetLines>5</maxSnippetLines>
        </ListStyle>
      </Style>
      <Placemark>
        <name>S1.AUALB</name>
        <styleUrl>#station_0</styleUrl>
        <color>ffe3cea6</color>
        <Point>
          <coordinates>117.904600,-34.999500,0</coordinates>
        </Point>
        <description>Station AUALB (St Joseph's College)
	Station Code: AUALB
	Channel Count: 0/6 (Selected/Total)
	2013-09-26T00:00:00.000000Z - 
	Access: open 
	Latitude: -34.9995, Longitude: 117.9046, Elevation: 50.0 m
	Available Channels:
</description>
        <TimeSpan>
          <begin>2013-09-26T00:00:00.000000Z</begin>
        </TimeSpan>
      </Placemark>
      <Placemark>
        <name>S1.AUALC</name>
        <styleUrl>#station_0</styleUrl>
        <color>ffe3cea6</color>
        <Point>
          <coordinates>133.883500,-23.689900,0</coordinates>
        </Point>
        <description>Station AUALC (St Philip's College)
	Station Code: AUALC
	Channel Count: 0/6 (Selected/Total)
	2015-08-19T00:00:00.000000Z - 
	Access: open 
	Latitude: -23.6899, Longitude: 133.8835, Elevation: 573.0 m
	Available Channels:
</description>
        <TimeSpan>
          <begin>2015-08-19T00:00:00.000000Z</begin>
        </TimeSpan>
      </Placemark>
      <Placemark>
        <name>S1.AUANU</name>
        <styleUrl>#station_0</styleUrl>
        <color>ffe3cea6</color>
        <Point>
          <coordinates>149.113900,-35.283900,0</coordinates>
        </Point>
        <description>Station AUANU (Australian National University)
	Station Code: AUANU
	Channel Count: 0/6 (Selected/Total)
	2022-11-01T11:32:11.500000Z - 
	Access: open 
	Latitude: -35.2839, Longitude: 149.1139, Elevation: 555.0 m
	Available Channels:
</description>
        <TimeSpan>
          <begin>2022-11-01T11:32:11.500000Z</begin>
        </TimeSpan>
      </Placemark>
      <Placemark>
        <name>S1.AUAPY</name>
        <styleUrl>#station_0</styleUrl>
        <color>ffe3cea6</color>
        <Point>
          <coordinates>132.135300,-26.284400,0</coordinates>
        </Point>
        <description>Station AUAPY (Ernabella Anangu School)
	Station Code: AUAPY
	Channel Count: 0/12 (Selected/Total)
	2019-08-07T01:46:00.000000Z - 
	Access: open 
	Latitude: -26.2844, Longitude: 132.1353, Elevation: 670.0 m
	Available Channels:
</description>
        <TimeSpan>
          <begin>2019-08-07T01:46:00.000000Z</begin>
        </TimeSpan>
      </Placemark>
      <Placemark>
        <name>S1.AUAYR</name>
        <styleUrl>#station_0</styleUrl>
        <color>ffe3cea6</color>
        <Point>
          <coordinates>147.408800,-19.577400,0</coordinates>
        </Point>
        <description>Station AUAYR (Ayr State High School)
	Station Code: AUAYR
	Channel Count: 0/6 (Selected/Total)
	2013-08-26T00:00:00.000000Z - 
	Access: open 
	Latitude: -19.5774, Longitude: 147.4088, Elevation: 13.0 m
	Available Channels:
</description>
        <TimeSpan>
          <begin>2013-08-26T00:00:00.000000Z</begin>
        </TimeSpan>
      </Placemark>
      <Placemark>
        <name>S1.AUBRM</name>
        <styleUrl>#station_0</styleUrl>
        <color>ffe3cea6</color>
        <Point>
          <coordinates>122.232100,-17.956500,0</coordinates>
        </Point>
        <description>Station AUBRM (Broome Senior High School)
	Station Code: AUBRM
	Channel Count: 0/6 (Selected/Total)
	2019-07-14T03:52:00.000000Z - 
	Access: open 
	Latitude: -17.9565, Longitude: 122.2321, Elevation: 20.0 m
	Available Channels:
</description>
        <TimeSpan>
          <begin>2019-07-14T03:52:00.000000Z</begin>
        </TimeSpan>
      </Placemark>
      <Placemark>
        <name>S1.AUBRN</name>
        <styleUrl>#station_0</styleUrl>
        <color>ffe3cea6</color>
        <Point>
          <coordinates>145.868400,-41.040500,0</coordinates>
        </Point>
        <description>Station AUBRN (Burnie High School)
	Station Code: AUBRN
	Channel Count: 0/6 (Selected/Total)
	2017-07-06T00:00:00.000000Z - 
	Access: open 
	Latitude: -41.0405, Longitude: 145.8684, Elevation: 10.0 m
	Available Channels:
</description>
        <TimeSpan>
          <begin>2017-07-06T00:00:00.000000Z</begin>
        </TimeSpan>
      </Placemark>
      <Placemark>
        <name>S1.AUBSH</name>
        <styleUrl>#station_0</styleUrl>
        <color>ffe3cea6</color>
        <Point>
          <coordinates>152.954700,-26.864000,0</coordinates>
        </Point>
        <description>Station AUBSH (Beerwah State High School)
	Station Code: AUBSH
	Channel Count: 0/12 (Selected/Total)
	2013-08-26T00:00:00.000000Z - 
	Access: open 
	Latitude: -26.8640, Longitude: 152.9547, Elevation: 26.0 m
	Available Channels:
</description>
        <TimeSpan>
          <begin>2013-08-26T00:00:00.000000Z</begin>
        </TimeSpan>
      </Placemark>
      <Placemark>
        <name>S1.AUBUS</name>
        <styleUrl>#station_0</styleUrl>
        <color>ffe3cea6</color>
        <Point>
          <coordinates>115.382800,-33.660100,0</coordinates>
        </Point>
        <description>Station AUBUS (Georgiana Molloy Anglican School)
	Station Code: AUBUS
	Channel Count: 0/12 (Selected/Total)
	2013-10-20T00:00:00.000000Z - 
	Access: open 
	Latitude: -33.6601, Longitude: 115.3828, Elevation: 13.0 m
	Available Channels:
</description>
        <TimeSpan>
          <begin>2013-10-20T00:00:00.000000Z</begin>
        </TimeSpan>
      </Placemark>
      <Placemark>
        <name>S1.AUCAR</name>
        <styleUrl>#station_0</styleUrl>
        <color>ffe3cea6</color>
        <Point>
          <coordinates>113.658600,-24.885100,0</coordinates>
        </Point>
        <description>Station AUCAR (St Mary Star of the Sea)
	Station Code: AUCAR
	Channel Count: 0/18 (Selected/Total)
	2013-09-24T00:00:00.000000Z - 
	Access: open 
	Latitude: -24.8851, Longitude: 113.6586, Elevation: 17.0 m
	Available Channels:
</description>
        <TimeSpan>
          <begin>2013-09-24T00:00:00.000000Z</begin>
        </TimeSpan>
      </Placemark>
      <Placemark>
        <name>S1.AUCAS</name>
        <styleUrl>#station_0</styleUrl>
        <color>ffe3cea6</color>
        <Point>
          <coordinates>135.721900,-34.263700,0</coordinates>
        </Point>
        <description>Station AUCAS (Cummins Area School)
	Station Code: AUCAS
	Channel Count: 0/6 (Selected/Total)
	2013-08-26T00:00:00.000000Z - 
	Access: open 
	Latitude: -34.2637, Longitude: 135.7219, Elevation: 72.0 m
	Available Channels:
</description>
        <TimeSpan>
          <begin>2013-08-26T00:00:00.000000Z</begin>
        </TimeSpan>
      </Placemark>
      <Placemark>
        <name>S1.AUCSH</name>
        <styleUrl>#station_0</styleUrl>
        <color>ffe3cea6</color>
        <Point>
          <coordinates>145.768200,-16.915900,0</coordinates>
        </Point>
        <description>Station AUCSH (Cairns State High School)
	Station Code: AUCSH
	Channel Count: 0/6 (Selected/Total)
	2013-09-03T00:00:00.000000Z - 
	Access: open 
	Latitude: -16.9159, Longitude: 145.7682, Elevation: 17.0 m
	Available Channels:
</description>
        <TimeSpan>
          <begin>2013-09-03T00:00:00.000000Z</begin>
        </TimeSpan>
      </Placemark>
      <Placemark>
        <name>S1.AUDAR</name>
        <styleUrl>#station_0</styleUrl>
        <color>ffe3cea6</color>
        <Point>
          <coordinates>149.137700,-35.253000,0</coordinates>
        </Point>
        <description>Station AUDAR (Daramalan College)
	Station Code: AUDAR
	Channel Count: 0/6 (Selected/Total)
	2012-04-11T00:00:00.000000Z - 
	Access: open 
	Latitude: -35.2530, Longitude: 149.1377, Elevation: 575.0 m
	Available Channels:
</description>
        <TimeSpan>
          <begin>2012-04-11T00:00:00.000000Z</begin>
        </TimeSpan>
      </Placemark>
      <Placemark>
        <name>S1.AUDCS</name>
        <styleUrl>#station_0</styleUrl>
        <color>ffe3cea6</color>
        <Point>
          <coordinates>148.627800,-32.233400,0</coordinates>
        </Point>
        <description>Station AUDCS (Dubbo College Senior Campus)
	Station Code: AUDCS
	Channel Count: 0/6 (Selected/Total)
	2013-05-30T00:00:00.000000Z - 
	Access: open 
	Latitude: -32.2334, Longitude: 148.6278, Elevation: 276.0 m
	Available Channels:
</description>
        <TimeSpan>
          <begin>2013-05-30T00:00:00.000000Z</begin>
        </TimeSpan>
      </Placemark>
      <Placemark>
        <name>S1.AUDHS</name>
        <styleUrl>#station_0</styleUrl>
        <color>ffe3cea6</color>
        <Point>
          <coordinates>130.833000,-12.440000,0</coordinates>
        </Point>
        <description>Station AUDHS (Darwin High School)
	Station Code: AUDHS
	Channel Count: 0/12 (Selected/Total)
	2013-08-26T00:00:00.000000Z - 
	Access: open 
	Latitude: -12.4400, Longitude: 130.8330, Elevation: 26.0 m
	Available Channels:
</description>
        <TimeSpan>
          <begin>2013-08-26T00:00:00.000000Z</begin>
        </TimeSpan>
      </Placemark>
      <Placemark>
        <name>S1.AUGRF</name>
        <styleUrl>#station_0</styleUrl>
        <color>ffe3cea6</color>
        <Point>
          <coordinates>146.059000,-34.285800,0</coordinates>
        </Point>
        <description>Station AUGRF (Marian Catholic College)
	Station Code: AUGRF
	Channel Count: 0/6 (Selected/Total)
	2019-04-01T00:15:53.000000Z - 
	Access: open 
	Latitude: -34.2858, Longitude: 146.0590, Elevation: 132.0 m
	Available Channels:
</description>
        <TimeSpan>
          <begin>2019-04-01T00:15:53.000000Z</begin>
        </TimeSpan>
      </Placemark>
      <Placemark>
        <name>S1.AUHAR</name>
        <styleUrl>#station_0</styleUrl>
        <color>ffe3cea6</color>
        <Point>
          <coordinates>115.891200,-33.092700,0</coordinates>
        </Point>
        <description>Station AUHAR (St Anne's School)
	Station Code: AUHAR
	Channel Count: 0/6 (Selected/Total)
	2014-09-18T00:00:00.000000Z - 
	Access: open 
	Latitude: -33.0927, Longitude: 115.8912, Elevation: 39.0 m
	Available Channels:
</description>
        <TimeSpan>
          <begin>2014-09-18T00:00:00.000000Z</begin>
        </TimeSpan>
      </Placemark>
      <Placemark>
        <name>S1.AUHPC</name>
        <styleUrl>#station_0</styleUrl>
        <color>ffe3cea6</color>
        <Point>
          <coordinates>142.318300,-38.106800,0</coordinates>
        </Point>
        <description>Station AUHPC (Hawkesdale P12 School)
	Station Code: AUHPC
	Channel Count: 0/18 (Selected/Total)
	2013-05-24T00:00:00.000000Z - 
	Access: open 
	Latitude: -38.1068, Longitude: 142.3183, Elevation: 11.0 m
	Available Channels:
</description>
        <TimeSpan>
          <begin>2013-05-24T00:00:00.000000Z</begin>
        </TimeSpan>
      </Placemark>
      <Placemark>
        <name>S1.AUJCS</name>
        <styleUrl>#station_0</styleUrl>
        <color>ffe3cea6</color>
        <Point>
          <coordinates>138.609800,-33.204700,0</coordinates>
        </Point>
        <description>Station AUJCS (Jamestown Community School)
	Station Code: AUJCS
	Channel Count: 0/12 (Selected/Total)
	2013-08-23T00:00:00.000000Z - 
	Access: open 
	Latitude: -33.2047, Longitude: 138.6098, Elevation: 464.0 m
	Available Channels:
</description>
        <TimeSpan>
          <begin>2013-08-23T00:00:00.000000Z</begin>
        </TimeSpan>
      </Placemark>
      <Placemark>
        <name>S1.AUKAL</name>
        <styleUrl>#station_0</styleUrl>
        <color>ffe3cea6</color>
        <Point>
          <coordinates>121.478900,-30.763700,0</coordinates>
        </Point>
        <description>Station AUKAL (John Paul College)
	Station Code: AUKAL
	Channel Count: 0/6 (Selected/Total)
	2013-09-26T00:00:00.000000Z - 
	Access: open 
	Latitude: -30.7637, Longitude: 121.4789, Elevation: 373.0 m
	Available Channels:
</description>
        <TimeSpan>
          <begin>2013-09-26T00:00:00.000000Z</begin>
        </TimeSpan>
      </Placemark>
      <Placemark>
        <name>S1.AUKAR</name>
        <styleUrl>#station_0</styleUrl>
        <color>ffe3cea6</color>
        <Point>
          <coordinates>116.817800,-20.752000,0</coordinates>
        </Point>
        <description>Station AUKAR (St Luke's College)
	Station Code: AUKAR
	Channel Count: 0/12 (Selected/Total)
	2013-09-15T00:00:00.000000Z - 
	Access: open 
	Latitude: -20.7520, Longitude: 116.8178, Elevation: 45.0 m
	Available Channels:
</description>
        <TimeSpan>
          <begin>2013-09-15T00:00:00.000000Z</begin>
        </TimeSpan>
      </Placemark>
      <Placemark>
        <name>S1.AUKAT</name>
        <styleUrl>#station_0</styleUrl>
        <color>ffe3cea6</color>
        <Point>
          <coordinates>132.282900,-14.462400,0</coordinates>
        </Point>
        <description>Station AUKAT (Katherine High School)
	Station Code: AUKAT
	Channel Count: 0/12 (Selected/Total)
	2013-08-29T00:00:00.000000Z - 
	Access: open 
	Latitude: -14.4624, Longitude: 132.2829, Elevation: 122.0 m
	Available Channels:
</description>
        <TimeSpan>
          <begin>2013-08-29T00:00:00.000000Z</begin>
        </TimeSpan>
      </Placemark>
      <Placemark>
        <name>S1.AUKHS</name>
        <styleUrl>#station_0</styleUrl>
        <color>ffe3cea6</color>
        <Point>
          <coordinates>151.382700,-33.464200,0</coordinates>
        </Point>
        <description>Station AUKHS (Kincumber High School)
	Station Code: AUKHS
	Channel Count: 0/12 (Selected/Total)
	2013-05-28T00:00:00.000000Z - 
	Access: open 
	Latitude: -33.4642, Longitude: 151.3827, Elevation: 27.0 m
	Available Channels:
</description>
        <TimeSpan>
          <begin>2013-05-28T00:00:00.000000Z</begin>
        </TimeSpan>
      </Placemark>
      <Placemark>
        <name>S1.AUKSC</name>
        <styleUrl>#station_0</styleUrl>
        <color>ffe3cea6</color>
        <Point>
          <coordinates>145.158400,-37.968400,0</coordinates>
        </Point>
        <description>Station AUKSC (Keysborough Secondary College)
	Station Code: AUKSC
	Channel Count: 0/12 (Selected/Total)
	2013-05-24T00:00:00.000000Z - 
	Access: open 
	Latitude: -37.9684, Longitude: 145.1584, Elevation: 50.0 m
	Available Channels:
</description>
        <TimeSpan>
          <begin>2013-05-24T00:00:00.000000Z</begin>
        </TimeSpan>
      </Placemark>
      <Placemark>
        <name>S1.AUKUL</name>
        <styleUrl>#station_0</styleUrl>
        <color>ffe3cea6</color>
        <Point>
          <coordinates>118.152200,-32.669700,0</coordinates>
        </Point>
        <description>Station AUKUL (Kulin District High School)
	Station Code: AUKUL
	Channel Count: 0/12 (Selected/Total)
	2013-11-21T00:00:00.000000Z - 
	Access: open 
	Latitude: -32.6697, Longitude: 118.1522, Elevation: 312.0 m
	Available Channels:
</description>
        <TimeSpan>
          <begin>2013-11-21T00:00:00.000000Z</begin>
        </TimeSpan>
      </Placemark>
      <Placemark>
        <name>S1.AULHS</name>
        <styleUrl>#station_0</styleUrl>
        <color>ffe3cea6</color>
        <Point>
          <coordinates>147.215000,-41.251900,0</coordinates>
        </Point>
        <description>Station AULHS (Lilydale High School)
	Station Code: AULHS
	Channel Count: 0/12 (Selected/Total)
	2013-10-31T00:00:00.000000Z - 
	Access: open 
	Latitude: -41.2519, Longitude: 147.2150, Elevation: 173.0 m
	Available Channels:
</description>
        <TimeSpan>
          <begin>2013-10-31T00:00:00.000000Z</begin>
        </TimeSpan>
      </Placemark>
      <Placemark>
        <name>S1.AULRC</name>
        <styleUrl>#station_0</styleUrl>
        <color>ffe3cea6</color>
        <Point>
          <coordinates>147.979000,-29.426200,0</coordinates>
        </Point>
        <description>Station AULRC (Lightning Ridge Central School)
	Station Code: AULRC
	Channel Count: 0/6 (Selected/Total)
	2013-08-29T00:00:00.000000Z - 
	Access: open 
	Latitude: -29.4262, Longitude: 147.9790, Elevation: 145.0 m
	Available Channels:
</description>
        <TimeSpan>
          <begin>2013-08-29T00:00:00.000000Z</begin>
        </TimeSpan>
      </Placemark>
      <Placemark>
        <name>S1.AUMAG</name>
        <styleUrl>#station_0</styleUrl>
        <color>ffe3cea6</color>
        <Point>
          <coordinates>144.748200,-36.101600,0</coordinates>
        </Point>
        <description>Station AUMAG (Moama Anglican Grammar)
	Station Code: AUMAG
	Channel Count: 0/12 (Selected/Total)
	2013-05-24T00:00:00.000000Z - 
	Access: open 
	Latitude: -36.1016, Longitude: 144.7482, Elevation: 127.0 m
	Available Channels:
</description>
        <TimeSpan>
          <begin>2013-05-24T00:00:00.000000Z</begin>
        </TimeSpan>
      </Placemark>
      <Placemark>
        <name>S1.AUMAR</name>
        <styleUrl>#station_0</styleUrl>
        <color>ffe3cea6</color>
        <Point>
          <coordinates>138.635700,-34.891600,0</coordinates>
        </Point>
        <description>Station AUMAR (Marden Senior College)
	Station Code: AUMAR
	Channel Count: 0/6 (Selected/Total)
	2013-08-26T00:00:00.000000Z - 
	Access: open 
	Latitude: -34.8916, Longitude: 138.6357, Elevation: 153.0 m
	Available Channels:
</description>
        <TimeSpan>
          <begin>2013-08-26T00:00:00.000000Z</begin>
        </TimeSpan>
      </Placemark>
      <Placemark>
        <name>S1.AUMAZ</name>
        <styleUrl>#station_0</styleUrl>
        <color>ffe3cea6</color>
        <Point>
          <coordinates>116.038400,-32.006900,0</coordinates>
        </Point>
        <description>Station AUMAZ (Mazenod Senior College)
	Station Code: AUMAZ
	Channel Count: 0/6 (Selected/Total)
	2013-12-04T00:00:00.000000Z - 
	Access: open 
	Latitude: -32.0069, Longitude: 116.0384, Elevation: 263.0 m
	Available Channels:
</description>
        <TimeSpan>
          <begin>2013-12-04T00:00:00.000000Z</begin>
        </TimeSpan>
      </Placemark>
      <Placemark>
        <name>S1.AUMBR</name>
        <styleUrl>#station_0</styleUrl>
        <color>ffe3cea6</color>
        <Point>
          <coordinates>139.285900,-35.134000,0</coordinates>
        </Point>
        <description>Station AUMBR (Murray Bridge High School)
	Station Code: AUMBR
	Channel Count: 0/6 (Selected/Total)
	2016-06-20T00:00:00.000000Z - 
	Access: open 
	Latitude: -35.1340, Longitude: 139.2859, Elevation: 50.0 m
	Available Channels:
</description>
        <TimeSpan>
          <begin>2016-06-20T00:00:00.000000Z</begin>
        </TimeSpan>
      </Placemark>
      <Placemark>
        <name>S1.AUMHS</name>
        <styleUrl>#station_0</styleUrl>
        <color>ffe3cea6</color>
        <Point>
          <coordinates>149.088800,-35.363500,0</coordinates>
        </Point>
        <description>Station AUMHS (Melrose High School)
	Station Code: AUMHS
	Channel Count: 0/6 (Selected/Total)
	2012-04-11T00:00:00.000000Z - 
	Access: open 
	Latitude: -35.3635, Longitude: 149.0888, Elevation: 615.0 m
	Available Channels:
</description>
        <TimeSpan>
          <begin>2012-04-11T00:00:00.000000Z</begin>
        </TimeSpan>
      </Placemark>
      <Placemark>
        <name>S1.AUMOU</name>
        <styleUrl>#station_0</styleUrl>
        <color>ffe3cea6</color>
        <Point>
          <coordinates>149.981400,-24.575200,0</coordinates>
        </Point>
        <description>Station AUMOU (Moura State High School)
	Station Code: AUMOU
	Channel Count: 0/12 (Selected/Total)
	2013-08-26T00:00:00.000000Z - 
	Access: open 
	Latitude: -24.5752, Longitude: 149.9814, Elevation: 153.0 m
	Available Channels:
</description>
        <TimeSpan>
          <begin>2013-08-26T00:00:00.000000Z</begin>
        </TimeSpan>
      </Placemark>
      <Placemark>
        <name>S1.AUMTC</name>
        <styleUrl>#station_0</styleUrl>
        <color>ffe3cea6</color>
        <Point>
          <coordinates>143.877100,-37.608900,0</coordinates>
        </Point>
        <description>Station AUMTC (Mt Clear College/Earth Ed)
	Station Code: AUMTC
	Channel Count: 0/6 (Selected/Total)
	2013-05-24T00:00:00.000000Z - 
	Access: open 
	Latitude: -37.6089, Longitude: 143.8771, Elevation: 48.0 m
	Available Channels:
</description>
        <TimeSpan>
          <begin>2013-05-24T00:00:00.000000Z</begin>
        </TimeSpan>
      </Placemark>
      <Placemark>
        <name>S1.AUMTS</name>
        <styleUrl>#station_0</styleUrl>
        <color>ffe3cea6</color>
        <Point>
          <coordinates>148.996400,-35.318800,0</coordinates>
        </Point>
        <description>Station AUMTS (Mt Stromlo)
	Station Code: AUMTS
	Channel Count: 0/6 (Selected/Total)
	2011-09-01T02:22:00.000000Z - 
	Access: open 
	Latitude: -35.3188, Longitude: 148.9964, Elevation: 667.0 m
	Available Channels:
</description>
        <TimeSpan>
          <begin>2011-09-01T02:22:00.000000Z</begin>
        </TimeSpan>
      </Placemark>
      <Placemark>
        <name>S1.AUNHS</name>
        <styleUrl>#station_0</styleUrl>
        <color>ffe3cea6</color>
        <Point>
          <coordinates>136.783200,-12.187400,0</coordinates>
        </Point>
        <description>Station AUNHS (Nhulunbuy High School)
	Station Code: AUNHS
	Channel Count: 0/6 (Selected/Total)
	2013-08-28T00:00:00.000000Z - 
	Access: open 
	Latitude: -12.1874, Longitude: 136.7832, Elevation: 20.0 m
	Available Channels:
</description>
        <TimeSpan>
          <begin>2013-08-28T00:00:00.000000Z</begin>
        </TimeSpan>
      </Placemark>
      <Placemark>
        <name>S1.AUNRC</name>
        <styleUrl>#station_0</styleUrl>
        <color>ffe3cea6</color>
        <Point>
          <coordinates>150.532900,-23.352900,0</coordinates>
        </Point>
        <description>Station AUNRC (North Rockhampton State High School)
	Station Code: AUNRC
	Channel Count: 0/6 (Selected/Total)
	2013-09-01T00:00:00.000000Z - 
	Access: open 
	Latitude: -23.3529, Longitude: 150.5329, Elevation: 38.0 m
	Available Channels:
</description>
        <TimeSpan>
          <begin>2013-09-01T00:00:00.000000Z</begin>
        </TimeSpan>
      </Placemark>
      <Placemark>
        <name>S1.AUPHS</name>
        <styleUrl>#station_0</styleUrl>
        <color>ffe3cea6</color>
        <Point>
          <coordinates>150.894300,-31.099000,0</coordinates>
        </Point>
        <description>Station AUPHS (Peel High School)
	Station Code: AUPHS
	Channel Count: 0/6 (Selected/Total)
	2013-05-30T00:00:00.000000Z - 
	Access: open 
	Latitude: -31.0990, Longitude: 150.8943, Elevation: 404.0 m
	Available Channels:
</description>
        <TimeSpan>
          <begin>2013-05-30T00:00:00.000000Z</begin>
        </TimeSpan>
      </Placemark>
      <Placemark>
        <name>S1.AUPKL</name>
        <styleUrl>#station_0</styleUrl>
        <color>ffe3cea6</color>
        <Point>
          <coordinates>145.901100,-41.080900,0</coordinates>
        </Point>
        <description>Station AUPKL (Parklands High School)
	Station Code: AUPKL
	Channel Count: 0/6 (Selected/Total)
	2016-11-25T00:00:00.000000Z - 
	Access: open 
	Latitude: -41.0809, Longitude: 145.9011, Elevation: 171.0 m
	Available Channels:
</description>
        <TimeSpan>
          <begin>2016-11-25T00:00:00.000000Z</begin>
        </TimeSpan>
      </Placemark>
      <Placemark>
        <name>S1.AURMK</name>
        <styleUrl>#station_0</styleUrl>
        <color>ffe3cea6</color>
        <Point>
          <coordinates>140.740400,-34.172800,0</coordinates>
        </Point>
        <description>Station AURMK (Renmark High School)
	Station Code: AURMK
	Channel Count: 0/12 (Selected/Total)
	2013-08-26T00:00:00.000000Z - 
	Access: open 
	Latitude: -34.1728, Longitude: 140.7404, Elevation: 26.0 m
	Available Channels:
</description>
        <TimeSpan>
          <begin>2013-08-26T00:00:00.000000Z</begin>
        </TimeSpan>
      </Placemark>
      <Placemark>
        <name>S1.AUROX</name>
        <styleUrl>#station_0</styleUrl>
        <color>ffe3cea6</color>
        <Point>
          <coordinates>136.897100,-30.560100,0</coordinates>
        </Point>
        <description>Station AUROX (Roxby Downs Area School)
	Station Code: AUROX
	Channel Count: 0/6 (Selected/Total)
	2013-09-02T00:00:00.000000Z - 
	Access: open 
	Latitude: -30.5601, Longitude: 136.8971, Elevation: 106.0 m
	Available Channels:
</description>
        <TimeSpan>
          <begin>2013-09-02T00:00:00.000000Z</begin>
        </TimeSpan>
      </Placemark>
      <Placemark>
        <name>S1.AURSC</name>
        <styleUrl>#station_0</styleUrl>
        <color>ffe3cea6</color>
        <Point>
          <coordinates>144.886600,-38.368000,0</coordinates>
        </Point>
        <description>Station AURSC (Rosebud Secondary College)
	Station Code: AURSC
	Channel Count: 0/12 (Selected/Total)
	2013-05-24T00:00:00.000000Z - 
	Access: open 
	Latitude: -38.3680, Longitude: 144.8866, Elevation: 23.0 m
	Available Channels:
</description>
        <TimeSpan>
          <begin>2013-05-24T00:00:00.000000Z</begin>
        </TimeSpan>
      </Placemark>
      <Placemark>
        <name>S1.AUSIS</name>
        <styleUrl>#station_0</styleUrl>
        <color>ffe3cea6</color>
        <Point>
          <coordinates>149.114700,-35.283900,0</coordinates>
        </Point>
        <description>Station AUSIS (Australian National University)
	Station Code: AUSIS
	Channel Count: 0/6 (Selected/Total)
	2011-09-13T00:00:00.000000Z - 2020-04-16T04:55:00.000000Z
	Access: open 
	Latitude: -35.2839, Longitude: 149.1147, Elevation: 585.0 m
	Available Channels:
</description>
        <TimeSpan>
          <begin>2011-09-13T00:00:00.000000Z</begin>
          <end>2020-04-16T04:55:00.000000Z</end>
        </TimeSpan>
      </Placemark>
      <Placemark>
        <name>S1.AUSMG</name>
        <styleUrl>#station_0</styleUrl>
        <color>ffe3cea6</color>
        <Point>
          <coordinates>148.608400,-36.416100,0</coordinates>
        </Point>
        <description>Station AUSMG (Snowy Mountains Grammar School)
	Station Code: AUSMG
	Channel Count: 0/12 (Selected/Total)
	2013-03-18T00:00:00.000000Z - 
	Access: open 
	Latitude: -36.4161, Longitude: 148.6084, Elevation: 951.0 m
	Available Channels:
</description>
        <TimeSpan>
          <begin>2013-03-18T00:00:00.000000Z</begin>
        </TimeSpan>
      </Placemark>
      <Placemark>
        <name>S1.AUSSC</name>
        <styleUrl>#station_0</styleUrl>
        <color>ffe3cea6</color>
        <Point>
          <coordinates>147.082500,-38.097700,0</coordinates>
        </Point>
        <description>Station AUSSC (Sale College)
	Station Code: AUSSC
	Channel Count: 0/12 (Selected/Total)
	2013-11-21T00:00:00.000000Z - 
	Access: open 
	Latitude: -38.0977, Longitude: 147.0825, Elevation: 19.0 m
	Available Channels:
</description>
        <TimeSpan>
          <begin>2013-11-21T00:00:00.000000Z</begin>
        </TimeSpan>
      </Placemark>
      <Placemark>
        <name>S1.AUTAR</name>
        <styleUrl>#station_0</styleUrl>
        <color>ffe3cea6</color>
        <Point>
          <coordinates>147.355100,-42.942500,0</coordinates>
        </Point>
        <description>Station AUTAR (Taroona High School)
	Station Code: AUTAR
	Channel Count: 0/6 (Selected/Total)
	2013-11-01T00:00:00.000000Z - 
	Access: open 
	Latitude: -42.9425, Longitude: 147.3551, Elevation: 25.0 m
	Available Channels:
</description>
        <TimeSpan>
          <begin>2013-11-01T00:00:00.000000Z</begin>
        </TimeSpan>
      </Placemark>
      <Placemark>
        <name>S1.AUTKS</name>
        <styleUrl>#station_0</styleUrl>
        <color>ffe3cea6</color>
        <Point>
          <coordinates>151.025400,-33.784600,0</coordinates>
        </Point>
        <description>Station AUTKS (The King's School)
	Station Code: AUTKS
	Channel Count: 0/6 (Selected/Total)
	2014-02-27T00:00:00.000000Z - 
	Access: open 
	Latitude: -33.7846, Longitude: 151.0254, Elevation: 95.0 m
	Available Channels:
</description>
        <TimeSpan>
          <begin>2014-02-27T00:00:00.000000Z</begin>
        </TimeSpan>
      </Placemark>
      <Placemark>
        <name>S1.AUTOO</name>
        <styleUrl>#station_0</styleUrl>
        <color>ffe3cea6</color>
        <Point>
          <coordinates>151.966800,-27.545200,0</coordinates>
        </Point>
        <description>Station AUTOO (Toowoomba State High School)
	Station Code: AUTOO
	Channel Count: 0/12 (Selected/Total)
	2013-08-26T00:00:00.000000Z - 
	Access: open 
	Latitude: -27.5452, Longitude: 151.9668, Elevation: 687.0 m
	Available Channels:
</description>
        <TimeSpan>
          <begin>2013-08-26T00:00:00.000000Z</begin>
        </TimeSpan>
      </Placemark>
      <Placemark>
        <name>S1.AUUHS</name>
        <styleUrl>#station_0</styleUrl>
        <color>ffe3cea6</color>
        <Point>
          <coordinates>150.469600,-35.358900,0</coordinates>
        </Point>
        <description>Station AUUHS (Ulladulla High School)
	Station Code: AUUHS
	Channel Count: 0/12 (Selected/Total)
	2013-09-15T00:00:00.000000Z - 
	Access: open 
	Latitude: -35.3589, Longitude: 150.4696, Elevation: 44.0 m
	Available Channels:
</description>
        <TimeSpan>
          <begin>2013-09-15T00:00:00.000000Z</begin>
        </TimeSpan>
      </Placemark>
      <Placemark>
        <name>S1.AUWSH</name>
        <styleUrl>#station_0</styleUrl>
        <color>ffe3cea6</color>
        <Point>
          <coordinates>153.037200,-27.397700,0</coordinates>
        </Point>
        <description>Station AUWSH (Wavell State High School)
	Station Code: AUWSH
	Channel Count: 0/18 (Selected/Total)
	2013-06-24T00:00:00.000000Z - 
	Access: open 
	Latitude: -27.3977, Longitude: 153.0372, Elevation: 60.0 m
	Available Channels:
</description>
        <TimeSpan>
          <begin>2013-06-24T00:00:00.000000Z</begin>
        </TimeSpan>
      </Placemark>
      <Placemark>
        <name>S1.TEST</name>
        <styleUrl>#station_0</styleUrl>
        <color>ffe3cea6</color>
        <Point>
          <coordinates>149.113900,-35.283900,0</coordinates>
        </Point>
        <description>Station TEST (TESTING ONLY)
	Station Code: TEST
	Channel Count: 0/6 (Selected/Total)
	2024-06-01T00:00:00.000000Z - 
	Access: open 
	Latitude: -35.2839, Longitude: 149.1139, Elevation: 555.0 m
	Available Channels:
</description>
        <TimeSpan>
          <begin>2024-06-01T00:00:00.000000Z</begin>
        </TimeSpan>
      </Placemark>
      <TimeSpan>
        <begin>2011-01-01T00:00:00.000000Z</begin>
      </TimeSpan>
    </Folder>
  </Document>
</kml>
